[{"OBJECT_NAME":"VSP ROSE","OBJECT_ID":"2024-043AC","EPOCH":"2026-03-09T21:48:06.922944","MEAN_MOTION":15.27746075,"ECCENTRICITY":0.00099339,"INCLINATION":97.5443,"RA_OF_ASC_NODE":203.927,"ARG_OF_PERICENTER":232.2702,"MEAN_ANOMALY":127.7637,"EPHEMERIS_TYPE":0,"CLASSIFICATION_TYPE":"U","NORAD_CAT_ID":59124,"ELEMENT_SET_NO":999,"REV_AT_EPOCH":11182,"BSTAR":0.00025731354,"MEAN_MOTION_DOT":6.907e-5,"MEAN_MOTION_DDOT":0},{"OBJECT_NAME":"STARLINK-32699","OBJECT_ID":"2024-254W","EPOCH":"2026-03-09T03:38:47.494176","MEAN_MOTION":15.27591918,"ECCENTRICITY":0.00015311,"INCLINATION":43.0016,"RA_OF_ASC_NODE":22.6216,"ARG_OF_PERICENTER":250.0738,"MEAN_ANOMALY":109.9949,"EPHEMERIS_TYPE":0,"CLASSIFICATION_TYPE":"U","NORAD_CAT_ID":62482,"ELEMENT_SET_NO":999,"REV_AT_EPOCH":6738,"BSTAR":0.0013886226,"MEAN_MOTION_DOT":0.00038162,"MEAN_MOTION_DDOT":0}]
